STARLINK-3559           
1 51860U 22022J   24279.47896752  .00001267  00000+0  97694-4 0  9994
2 51860  53.2158 184.4378 0001028 101.3450 258.7658 15.08837592144587
STARLINK-3562           
1 51861U 22022K   24279.46424745  .00001658  00000+0  12224-3 0  9992
2 51861  53.2163 184.5016 0001323  84.4755 275.6388 15.08839507144565
STARLINK-3508           
1 51862U 22022L   24279.14408394  .00001782  00000+0  13005-3 0  9996
2 51862  53.2170 185.9398 0001601  93.9645 266.1530 15.08834917144580
STARLINK-3555           
1 51863U 22022M   24279.05945091  .00000850  00000+0  71473-4 0  9996
2 51863  53.2156 186.3176 0001118  83.1314 276.9805 15.08839771144511
STARLINK-3548           
1 51864U 22022N   24279.46056343  .00025616  00000+0  16217-2 0  9995
2 51864  53.2151 184.4430 0001519  90.6285 269.4882 15.08840791144622
STARLINK-3503           
1 51865U 22022P   24279.18456136  .00003047  00000+0  20942-3 0  9994
2 51865  53.2159 185.7558 0001531  91.8317 268.2850 15.08848277144538
STARLINK-3553           
1 51866U 22022Q   24279.44677990  .00005101  00000+0  33824-3 0  9993
2 51866  53.2159 184.4372 0001022  69.8893 290.2209 15.08853719144572
STARLINK-3590           
1 51867U 22022R   24279.04839738  .00004262  00000+0  28558-3 0  9995
2 51867  53.2154 186.3670 0001261 100.8206 259.2928 15.08857175144516
STARLINK-3578           
1 51868U 22022S   24279.45320642  .00001642  00000+0  12121-3 0  9998
2 51868  53.2153 184.5451 0001494  66.9683 293.1466 15.08840915144576
STARLINK-3588           
1 51869U 22022T   24279.16984483  .00001651  00000+0  12178-3 0  9998
2 51869  53.2157 185.8208 0001435  94.7106 265.4050 15.08844874144534
STARLINK-3591           
1 51870U 22022U   24279.44216181  .00010257  00000+0  66127-3 0  9999
2 51870  53.2164 184.5996 0001126  71.7171 288.3944 15.08858804144622
STARLINK-3567           
1 51871U 22022V   24279.16615698  .00002327  00000+0  16418-3 0  9992
2 51871  53.2172 185.8394 0001507 104.4485 255.6674 15.08848578144571
STARLINK-3554           
1 51872U 22022W   24279.04105131  .00000596  00000+0  55525-4 0  9995
2 51872  53.2169 186.4023 0001259 102.0029 258.1105 15.08835524144514
STARLINK-3582           
1 51873U 22022X   24279.15608256 -.00000015  00000+0  17175-4 0  9990
2 51873  53.2161 185.8915 0001859 121.9702 238.1471 15.08834260144536
STARLINK-3574           
1 51874U 22022Y   24279.03000125  .00004783  00000+0  31827-3 0  9993
2 51874  53.2147 186.4536 0001182  97.8693 262.2433 15.08852106144508
STARLINK-3585           
1 51875U 22022Z   24279.47159761  .00001002  00000+0  81061-4 0  9990
2 51875  53.2164 184.3788 0001419  90.7242 269.3913 15.08840592144584
STARLINK-3583           
1 51876U 22022AA  24279.15880251  .00001789  00000+0  13043-3 0  9997
2 51876  53.2158 185.8704 0001885 120.7956 239.3222 15.08848943144538
STARLINK-3556           
1 51877U 22022AB  24278.87636986  .00002109  00000+0  15056-3 0  9993
2 51877  53.2153 177.1409 0001357  94.6663 265.4484 15.08839874144621
STARLINK-3575           
1 51878U 22022AC  24278.88648612  .00027476  00000+0  17380-2 0  9999
2 51878  53.2157 187.0985 0001216  86.7002 273.4129 15.08834276144499
STARLINK-3572           
1 51879U 22022AD  24279.13396653  .00017322  00000+0  11035-2 0  9994
2 51879  53.2155 175.9851 0001152  91.9896 268.1228 15.08848910144664
STARLINK-3566           
1 51880U 22022AE  24279.15508456  .00005239  00000+0  34687-3 0  9997
2 51880  53.2161 185.6093 0001297  98.6814 261.4325 15.08852352144538
STARLINK-3504           
1 51881U 22022AF  24278.86165285  .00001257  00000+0  97105-4 0  9995
2 51881  53.2157 177.2068 0001529  85.3774 274.7392 15.08831444144674
STARLINK-3570           
1 51882U 22022AG  24278.87364750  .00005113  00000+0  33907-3 0  9999
2 51882  53.2161 177.1623 0001764  93.6497 266.4697 15.08844022144673
STARLINK-3576           
1 51883U 22022AH  24278.87271468  .00005312  00000+0  35157-3 0  9993
2 51883  53.2165 177.3440 0001632  85.3751 274.7428 15.08839395144617
STARLINK-3577           
1 51884U 22022AJ  24278.86532709  .00008310  00000+0  53962-3 0  9996
2 51884  53.2182 177.1884 0002038 120.6302 239.4891 15.08837789144700
STARLINK-3584           
1 51885U 22022AK  24278.98309058  .00001940  00000+0  13995-3 0  9993
2 51885  53.2169 176.6596 0001596 110.6603 249.4560 15.08841058144631
STARLINK-3565           
1 51886U 22022AL  24279.45412343  .00003201  00000+0  21907-3 0  9993
2 51886  53.2174 174.5398 0002028 137.9206 222.1942 15.08845262144719
STARLINK-3551           
1 51887U 22022AM  24279.50932241 -.00002404  00000+0 -13297-3 0  9993
2 51887  53.2156 174.2920 0001504 183.5225 176.5757 15.08842513144716
STARLINK-3536           
1 51888U 22022AN  24279.45045629  .00003119  00000+0  21391-3 0  9999
2 51888  53.2163 174.5628 0000979 126.3290 233.7792 15.08845438144719
STARLINK-3547           
1 51889U 22022AP  24279.43204998  .00000688  00000+0  61327-4 0  9996
2 51889  53.2150 174.6496 0001386  80.1138 280.0010 15.08835739144701
