OBJECT_NAME,OBJECT_ID,EPOCH,MEAN_MOTION,ECCENTRICITY,INCLINATION,RA_OF_ASC_NODE,ARG_OF_PERICENTER,MEAN_ANOMALY,EPHEMERIS_TYPE,CLASSIFICATION_TYPE,NORAD_CAT_ID,ELEMENT_SET_NO,REV_AT_EPOCH,BSTAR,MEAN_MOTION_DOT,MEAN_MOTION_DDOT
STARLINK-3559,2022-022J,2024-10-05T11:29:42.793728,15.08837592,.0001028,53.2158,184.4378,101.3450,258.7658,0,U,51860,999,14458,.97694E-4,.1267E-4,0
STARLINK-3562,2022-022K,2024-10-05T11:08:30.979680,15.08839507,.0001323,53.2163,184.5016,84.4755,275.6388,0,U,51861,999,14456,.12224E-3,.1658E-4,0
STARLINK-3508,2022-022L,2024-10-05T03:27:28.852416,15.08834917,.0001601,53.2170,185.9398,93.9645,266.1530,0,U,51862,999,14458,.13005E-3,.1782E-4,0
STARLINK-3555,2022-022M,2024-10-05T01:25:36.558624,15.08839771,.0001118,53.2156,186.3176,83.1314,276.9805,0,U,51863,999,14451,.71473E-4,.85E-5,0
STARLINK-3548,2022-022N,2024-10-05T11:03:12.680352,15.08840791,.0001519,53.2151,184.4430,90.6285,269.4882,0,U,51864,999,14462,.16217E-2,.25616E-3,0
STARLINK-3503,2022-022P,2024-10-05T04:25:46.101504,15.08848277,.0001531,53.2159,185.7558,91.8317,268.2850,0,U,51865,999,14453,.20942E-3,.3047E-4,0
STARLINK-3553,2022-022Q,2024-10-05T10:43:21.783360,15.08853719,.0001022,53.2159,184.4372,69.8893,290.2209,0,U,51866,999,14457,.33824E-3,.5101E-4,0
STARLINK-3590,2022-022R,2024-10-05T01:09:41.533632,15.08857175,.0001261,53.2154,186.3670,100.8206,259.2928,0,U,51867,999,14451,.28558E-3,.4262E-4,0
STARLINK-3578,2022-022S,2024-10-05T10:52:37.034688,15.08840915,.0001494,53.2153,184.5451,66.9683,293.1466,0,U,51868,999,14457,.12121E-3,.1642E-4,0
STARLINK-3588,2022-022T,2024-10-05T04:04:34.593312,15.08844874,.0001435,53.2157,185.8208,94.7106,265.4050,0,U,51869,999,14453,.12178E-3,.1651E-4,0
STARLINK-3591,2022-022U,2024-10-05T10:36:42.780384,15.08858804,.0001126,53.2164,184.5996,71.7171,288.3944,0,U,51870,999,14462,.66127E-3,.10257E-3,0
STARLINK-3567,2022-022V,2024-10-05T03:59:15.963072,15.08848578,.0001507,53.2172,185.8394,104.4485,255.6674,0,U,51871,999,14457,.16418E-3,.2327E-4,0
STARLINK-3554,2022-022W,2024-10-05T00:59:06.833184,15.08835524,.0001259,53.2169,186.4023,102.0029,258.1105,0,U,51872,999,14451,.55525E-4,.596E-5,0
STARLINK-3582,2022-022X,2024-10-05T03:44:45.533184,15.08834260,.0001859,53.2161,185.8915,121.9702,238.1471,0,U,51873,999,14453,.17175E-4,-.15E-6,0
STARLINK-3574,2022-022Y,2024-10-05T00:43:12.108000,15.08852106,.0001182,53.2147,186.4536,97.8693,262.2433,0,U,51874,999,14450,.31827E-3,.4783E-4,0
STARLINK-3585,2022-022Z,2024-10-05T11:19:06.033504,15.08840592,.0001419,53.2164,184.3788,90.7242,269.3913,0,U,51875,999,14458,.81061E-4,.1002E-4,0
STARLINK-3583,2022-022AA,2024-10-05T03:48:40.536864,15.08848943,.0001885,53.2158,185.8704,120.7956,239.3222,0,U,51876,999,14453,.13043E-3,.1789E-4,0
STARLINK-3556,2022-022AB,2024-10-04T21:01:58.355904,15.08839874,.0001357,53.2153,177.1409,94.6663,265.4484,0,U,51877,999,14462,.15056E-3,.2109E-4,0
STARLINK-3575,2022-022AC,2024-10-04T21:16:32.400768,15.08834276,.0001216,53.2157,187.0985,86.7002,273.4129,0,U,51878,999,14449,.1738E-2,.27476E-3,0
STARLINK-3572,2022-022AD,2024-10-05T03:12:54.708192,15.08848910,.0001152,53.2155,175.9851,91.9896,268.1228,0,U,51879,999,14466,.11035E-2,.17322E-3,0
STARLINK-3566,2022-022AE,2024-10-05T03:43:19.305984,15.08852352,.0001297,53.2161,185.6093,98.6814,261.4325,0,U,51880,999,14453,.34687E-3,.5239E-4,0
STARLINK-3504,2022-022AF,2024-10-04T20:40:46.806240,15.08831444,.0001529,53.2157,177.2068,85.3774,274.7392,0,U,51881,999,14467,.97105E-4,.1257E-4,0
STARLINK-3570,2022-022AG,2024-10-04T20:58:03.144000,15.08844022,.0001764,53.2161,177.1623,93.6497,266.4697,0,U,51882,999,14467,.33907E-3,.5113E-4,0
STARLINK-3576,2022-022AH,2024-10-04T20:56:42.548352,15.08839395,.0001632,53.2165,177.3440,85.3751,274.7428,0,U,51883,999,14461,.35157E-3,.5312E-4,0
STARLINK-3577,2022-022AJ,2024-10-04T20:46:04.260576,15.08837789,.0002038,53.2182,177.1884,120.6302,239.4891,0,U,51884,999,14470,.53962E-3,.831E-4,0
STARLINK-3584,2022-022AK,2024-10-04T23:35:39.026112,15.08841058,.0001596,53.2169,176.6596,110.6603,249.4560,0,U,51885,999,14463,.13995E-3,.194E-4,0
STARLINK-3565,2022-022AL,2024-10-05T10:53:56.264352,15.08845262,.0002028,53.2174,174.5398,137.9206,222.1942,0,U,51886,999,14471,.21907E-3,.3201E-4,0
STARLINK-3551,2022-022AM,2024-10-05T12:13:25.456224,15.08842513,.0001504,53.2156,174.2920,183.5225,176.5757,0,U,51887,999,14471,-.13297E-3,-.2404E-4,0
STARLINK-3536,2022-022AN,2024-10-05T10:48:39.423456,15.08845438,.0000979,53.2163,174.5628,126.3290,233.7792,0,U,51888,999,14471,.21391E-3,.3119E-4,0
STARLINK-3547,2022-022AP,2024-10-05T10:22:09.118272,15.08835739,.0001386,53.2150,174.6496,80.1138,280.0010,0,U,51889,999,14470,.61327E-4,.688E-5,0
